NORAD_CAT_ID,OBJECT_NAME,OBJECT_TYPE,EPOCH,MEAN_MOTION,ECCENTRICITY,INCLINATION,RA_OF_ASC_NODE,ARG_OF_PERICENTER,MEAN_ANOMALY,BSTAR,MEAN_MOTION_DOT,MEAN_MOTION_DDOT,TLE_LINE0,TLE_LINE1,TLE_LINE2,SEMIMAJOR_AXIS,PERIOD,APOGEE,PERIGEE,DECAYED
53906.0,STARLINK-5054,PAYLOAD,2024-01-03 02:31:42,15.07210495,0.0001415,53.2177,290.4094,91.6064,268.509,8.383e-05,9.93e-06,0.0,0 STARLINK-5054,1 53906U 22119W   24003.10535433  .00000993  00000-0  83830-4 0  9998,2 53906  53.2177 290.4094 0001415  91.6064 268.5090 15.07210495 71142,6922.866,95.541,545.71,543.751,0.0
53906.0,STARLINK-5054,PAYLOAD,2024-01-03 04:07:11,15.07211113,0.000142,53.2177,290.1123,91.8724,268.243,8.8073e-05,1.058e-05,0.0,0 STARLINK-5054,1 53906U 22119W   24003.17166551  .00001058  00000-0  88073-4 0  9993,2 53906  53.2177 290.1123 0001420  91.8724 268.2430 15.07211113 71573,6922.864,95.541,545.712,543.746,0.0
53906.0,STARLINK-5054,PAYLOAD,2024-01-04 02:24:03,15.07204774,0.000155,53.2182,285.9572,77.0963,283.0201,1.9836e-05,1.9e-07,0.0,0 STARLINK-5054,1 53906U 22119W   24004.10003928  .00000019  00000-0  19836-4 0  9992,2 53906  53.2182 285.9572 0001550  77.0963 283.0201 15.07204774 71299,6922.883,95.541,545.821,543.675,0.0
53906.0,STARLINK-5054,PAYLOAD,2024-01-04 18:18:57,15.07201763,0.0001439,53.2173,282.9886,83.5447,276.5708,-2.8947e-06,-3.27e-06,0.0,0 STARLINK-5054,1 53906U 22119W   24004.76316080 -.00000327  00000-0 -28947-5 0  9998,2 53906  53.2173 282.9886 0001439  83.5447 276.5708 15.07201763 71811,6922.892,95.541,545.754,543.761,0.0
53906.0,STARLINK-5054,PAYLOAD,2024-01-05 00:40:54,15.07204938,0.0001469,53.2172,281.8014,86.5011,273.6149,-1.8945e-05,-5.72e-06,0.0,0 STARLINK-5054,1 53906U 22119W   24005.02840718 -.00000572  00000-0 -18945-4 0  9996,2 53906  53.2172 281.8014 0001469  86.5011 273.6149 15.07204938 71852,6922.883,95.541,545.765,543.731,0.0
53906.0,STARLINK-5054,PAYLOAD,2024-01-05 21:22:15,15.07206857,0.0001385,53.2181,277.9399,94.9032,265.2117,3.2424e-05,2.1e-06,0.0,0 STARLINK-5054,1 53906U 22119W   24005.89045932  .00000210  00000-0  32424-4 0  9991,2 53906  53.2181 277.9399 0001385  94.9032 265.2117 15.07206857 71985,6922.877,95.541,545.701,543.783,0.0
53906.0,STARLINK-5054,PAYLOAD,2024-01-06 03:44:13,15.07184607,0.000151,53.2168,276.7524,93.5411,266.5753,0.00046166,6.747e-05,0.0,0 STARLINK-5054,1 53906U 22119W   24006.15570834  .00006747  00000-0  46166-3 0  9993,2 53906  53.2168 276.7524 0001510  93.5411 266.5753 15.07184607 71600,6922.945,95.542,545.855,543.765,0.0
53906.0,STARLINK-5054,PAYLOAD,2024-01-06 21:14:36,15.07203388,0.0001476,53.2171,273.484,95.7724,264.3436,1.5236e-05,-5.1e-07,0.0,0 STARLINK-5054,1 53906U 22119W   24006.88514089 -.00000051  00000-0  15236-4 0  9991,2 53906  53.2171 273.4840 0001476  95.7724 264.3436 15.07203388 72132,6922.887,95.541,545.774,543.731,0.0
53906.0,STARLINK-5054,PAYLOAD,2024-01-07 03:36:33,15.07205376,0.0001508,53.2172,272.2961,93.0095,267.1069,2.416e-05,8.4e-07,0.0,0 STARLINK-5054,1 53906U 22119W   24007.15038702  .00000084  00000-0  24160-4 0  9996,2 53906  53.2172 272.2961 0001508  93.0095 267.1069 15.07205376 71751,6922.881,95.541,545.79,543.702,0.0
53906.0,STARLINK-5054,PAYLOAD,2024-01-07 22:42:25,15.07206302,0.000152,53.2172,268.7322,95.6007,264.5158,1.6057e-05,-3.9e-07,0.0,0 STARLINK-5054,1 53906U 22119W   24007.94613006 -.00000039  00000-0  16057-4 0  9996,2 53906  53.2172 268.7322 0001520  95.6007 264.5158 15.07206302 72297,6922.878,95.541,545.796,543.691,0.0
53906.0,STARLINK-5054,PAYLOAD,2024-01-08 00:17:54,15.07207933,0.000153,53.2173,268.4351,95.5032,264.6134,3.106e-05,1.89e-06,0.0,0 STARLINK-5054,1 53906U 22119W   24008.01244040  .00000189  00000-0  31060-4 0  9999,2 53906  53.2173 268.4351 0001530  95.5032 264.6134 15.07207933 72303,6922.873,95.541,545.798,543.679,0.0
53906.0,STARLINK-5054,PAYLOAD,2024-01-08 22:34:45,15.07203497,0.0001574,53.2175,264.2786,100.793,259.3238,3.8662e-05,3.05e-06,0.0,0 STARLINK-5054,1 53906U 22119W   24008.94080983  .00000305  00000-0  38662-4 0  9990,2 53906  53.2175 264.2786 0001574 100.7930 259.3238 15.07203497 72447,6922.887,95.541,545.842,543.662,0.0
53906.0,STARLINK-5054,PAYLOAD,2024-01-09 22:27:06,15.07205947,0.0001624,53.2176,259.8284,109.1173,250.9994,3.6562e-05,2.73e-06,0.0,0 STARLINK-5054,1 53906U 22119W   24009.93548774  .00000273  00000-0  36562-4 0  9998,2 53906  53.2176 259.8284 0001624 109.1173 250.9994 15.07205947 72593,6922.88,95.541,545.869,543.62,0.0
53906.0,STARLINK-5054,PAYLOAD,2024-01-10 00:02:35,15.07206302,0.0001472,53.2172,259.5288,93.3395,266.7765,3.1545e-05,1.97e-06,0.0,0 STARLINK-5054,1 53906U 22119W   24010.00179998  .00000197  00000-0  31545-4 0  9997,2 53906  53.2172 259.5288 0001472  93.3395 266.7765 15.07206302 72183,6922.878,95.541,545.763,543.724,0.0
53906.0,STARLINK-5054,PAYLOAD,2024-01-11 01:30:25,15.07189413,0.0001691,53.2173,254.7757,73.6248,286.4929,0.00028804,4.102e-05,0.0,0 STARLINK-5054,1 53906U 22119W   24011.06279542  .00004102  00000-0  28804-3 0  9993,2 53906  53.2173 254.7757 0001691  73.6248 286.4929 15.07189413 72345,6922.93,95.542,545.966,543.625,0.0
53906.0,STARLINK-5054,PAYLOAD,2024-01-11 22:11:46,15.07210948,0.0001356,53.2158,250.919,110.9531,249.1606,-8.9849e-06,-4.2e-06,0.0,0 STARLINK-5054,1 53906U 22119W   24011.92484419 -.00000420  00000-0 -89849-5 0  9998,2 53906  53.2158 250.9190 0001356 110.9531 249.1606 15.07210948 72891,6922.864,95.541,545.668,543.79,0.0
53906.0,STARLINK-5054,PAYLOAD,2024-01-12 01:22:45,15.07186905,0.0001499,53.2163,250.3237,103.32,256.7958,0.00042247,6.15e-05,0.0,0 STARLINK-5054,1 53906U 22119W   24012.05746978  .00006150  00000-0  42247-3 0  9997,2 53906  53.2163 250.3237 0001499 103.3200 256.7958 15.07186905 72912,6922.938,95.542,545.841,543.765,0.0
53906.0,STARLINK-5054,PAYLOAD,2024-01-12 18:53:08,15.07199578,0.0001391,53.2166,247.0552,114.4307,245.683,-6.0339e-05,-1.202e-05,0.0,0 STARLINK-5054,1 53906U 22119W   24012.78690860 -.00001202  00000-0 -60339-4 0  9993,2 53906  53.2166 247.0552 0001391 114.4307 245.6830 15.07199578 72602,6922.899,95.541,545.727,543.801,0.0
53906.0,STARLINK-5054,PAYLOAD,2024-01-12 20:28:38,15.07200324,0.0001384,53.2165,246.7587,110.6557,249.4583,-5.5182e-05,-1.123e-05,0.0,0 STARLINK-5054,1 53906U 22119W   24012.85322009 -.00001123  00000-0 -55182-4 0  9990,2 53906  53.2165 246.7587 0001384 110.6557 249.4583 15.07200324 73039,6922.897,95.541,545.72,543.804,0.0
53906.0,STARLINK-5054,PAYLOAD,2024-01-13 01:15:06,15.07200864,0.0001425,53.2167,245.8675,101.8318,258.2833,-2.2769e-05,-6.3e-06,0.0,0 STARLINK-5054,1 53906U 22119W   24013.05215532 -.00000630  00000-0 -22769-4 0  9992,2 53906  53.2167 245.8675 0001425 101.8318 258.2833 15.07200864 73060,6922.895,95.541,545.747,543.774,0.0
53906.0,STARLINK-5054,PAYLOAD,2024-01-13 18:45:28,15.07209958,0.0001494,53.2164,242.6014,107.1501,252.9654,3.0265e-05,1.77e-06,0.0,0 STARLINK-5054,1 53906U 22119W   24013.78157974  .00000177  00000-0  30265-4 0  9991,2 53906  53.2164 242.6014 0001494 107.1501 252.9654 15.07209958 72758,6922.867,95.541,545.767,543.698,0.0
53906.0,STARLINK-5054,PAYLOAD,2024-01-13 20:20:57,15.07211865,0.0001425,53.2169,242.304,109.8191,250.2955,2.6982e-05,1.27e-06,0.0,0 STARLINK-5054,1 53906U 22119W   24013.84789035  .00000127  00000-0  26982-4 0  9993,2 53906  53.2169 242.3040 0001425 109.8191 250.2955 15.07211865 73180,6922.861,95.541,545.713,543.74,0.0
53906.0,STARLINK-5054,PAYLOAD,2024-01-14 18:37:38,15.07348201,0.0001743,53.2167,238.1497,110.1055,250.0124,0.0012997,0.00019633,0.0,0 STARLINK-5054,1 53906U 22119W   24014.77613448  .00019633  00000-0  12997-2 0  9991,2 53906  53.2167 238.1497 0001743 110.1055 250.0124 15.07348201 72904,6922.444,95.532,545.516,543.102,0.0
53906.0,STARLINK-5054,PAYLOAD,2024-01-14 20:13:04,15.07378321,0.0001222,53.2161,237.8511,84.5569,275.5562,0.0015476,0.00023463,0.0,0 STARLINK-5054,1 53906U 22119W   24014.84240877  .00023463  00000-0  15476-2 0  9992,2 53906  53.2161 237.8511 0001222  84.5569 275.5562 15.07378321 73339,6922.352,95.53,545.063,543.371,0.0
53906.0,STARLINK-5054,PAYLOAD,2024-01-15 18:28:58,15.0791207,0.0002258,53.2162,233.6885,122.3285,237.7926,0.0052778,0.00082573,0.0,0 STARLINK-5054,1 53906U 22119W   24015.77011930  .00082573  00000-0  52778-2 0  9994,2 53906  53.2162 233.6885 0002258 122.3285 237.7926 15.07912070 73052,6920.718,95.496,544.146,541.02,0.0
53906.0,STARLINK-5054,PAYLOAD,2024-01-15 21:39:46,15.07994567,0.0001055,53.2162,233.0952,86.9447,273.1665,0.0058223,0.0009144,0.0,0 STARLINK-5054,1 53906U 22119W   24015.90261667  .00091440  00000-0  58223-2 0  9997,2 53906  53.2162 233.0952 0001055  86.9447 273.1665 15.07994567 73493,6920.466,95.491,543.061,541.601,0.0
53906.0,STARLINK-5054,PAYLOAD,2024-01-16 06:00:00,15.08857372,0.0001047,53.2141,231.5403,91.364,355.1881,-0.002618,-0.00041731,0.0,0 STARLINK-5054,1 53906U 22119W   24016.25001157 -.00041731  00000-0 -26180-2 0  9999,2 53906  53.2141 231.5403 0001047  91.3640 355.1881 15.08857372 73124,6917.827,95.436,540.417,538.968,0.0
53906.0,STARLINK-5054,PAYLOAD,2024-01-16 14:00:01,15.08804205,0.0001068,53.2143,230.0431,92.2815,5.8419,0.0019874,0.00031452,0.0,0 STARLINK-5054,1 53906U 22119W   24016.58334491  .00031452  00000-0  19874-2 0  9994,2 53906  53.2143 230.0431 0001068  92.2815   5.8419 15.08804205  5812,6917.99,95.44,540.594,539.116,0.0
53906.0,STARLINK-5054,PAYLOAD,2024-01-16 22:00:00,15.08807239,0.0001103,53.2143,228.5485,78.8024,30.8802,0.00065198,0.00010094,0.0,0 STARLINK-5054,1 53906U 22119W   24016.91667824  .00010094  00000-0  65198-3 0  9990,2 53906  53.2143 228.5485 0001103  78.8024  30.8802 15.08807239  5819,6917.981,95.44,540.609,539.082,0.0
53906.0,STARLINK-5054,PAYLOAD,2024-01-17 06:00:00,15.08834665,0.000104,53.2141,227.0511,81.396,39.8458,-0.001486,-0.00023856,0.0,0 STARLINK-5054,1 53906U 22119W   24017.25001157 -.00023856  00000-0 -14860-2 0  9990,2 53906  53.2141 227.0511 0001040  81.3960  39.8458 15.08834665 73273,6917.897,95.438,540.481,539.042,0.0
